{
  "type": "FeatureCollection",
  "features": [
    {
      "type": "Feature",
      "properties": {
        "norad_id": 66703,
        "name": "PELICAN-6",
        "group": "last-30-days",
        "lat": 56.40483656910863,
        "lon": -101.18816919436622,
        "alt_km": 508.9556129614648,
        "timestamp": "2025-12-21T20:41:06.756697+00:00",
        "meta_object_name": "PELICAN-6",
        "meta_object_id": "2025-276AP",
        "meta_epoch": "2025-12-21T13:48:53.456544",
        "meta_mean_motion": 15.17322005,
        "meta_eccentricity": 9.03e-05,
        "meta_inclination": 97.4414,
        "meta_ra_of_asc_node": 67.1831,
        "meta_arg_of_pericenter": 251.8635,
        "meta_mean_anomaly": 108.2501,
        "meta_ephemeris_type": 0,
        "meta_classification_type": "U",
        "meta_norad_cat_id": 66703,
        "meta_element_set_no": 999,
        "meta_rev_at_epoch": 346,
        "meta_bstar": 0.00021455991,
        "meta_mean_motion_dot": 4.212e-05,
        "meta_mean_motion_ddot": 0,
        "tle_line1": "1 66703U 25276AP  25355.57561871  .00004212  00000+0  21456-3 0  9993",
        "tle_line2": "2 66703  97.4414  67.1831 0000903 251.8635 108.2501 15.17322005  3467"
      },
      "geometry": {
        "type": "Point",
        "coordinates": [
          -101.18816919436622,
          56.40483656910863
        ]
      }
    },
    {
      "type": "Feature",
      "properties": {
        "norad_id": 66704,
        "name": "FLOCK 4H-1",
        "group": "last-30-days",
        "lat": 3.8283791262370443,
        "lon": -112.02118859355744,
        "alt_km": 513.0359359803242,
        "timestamp": "2025-12-21T20:41:06.756706+00:00",
        "meta_object_name": "FLOCK 4H-1",
        "meta_object_id": "2025-276AQ",
        "meta_epoch": "2025-12-21T10:25:13.651392",
        "meta_mean_motion": 15.18059569,
        "meta_eccentricity": 0.00017758,
        "meta_inclination": 97.439,
        "meta_ra_of_asc_node": 67.0574,
        "meta_arg_of_pericenter": 175.4041,
        "meta_mean_anomaly": 184.721,
        "meta_ephemeris_type": 0,
        "meta_classification_type": "U",
        "meta_norad_cat_id": 66704,
        "meta_element_set_no": 999,
        "meta_rev_at_epoch": 344,
        "meta_bstar": 0.00037079655,
        "meta_mean_motion_dot": 7.487e-05,
        "meta_mean_motion_ddot": 0,
        "tle_line1": "1 66704U 25276AQ  25355.43418578  .00007487  00000+0  37080-3 0  9991",
        "tle_line2": "2 66704  97.4390  67.0574 0001775 175.4041 184.7210 15.18059569  3441"
      },
      "geometry": {
        "type": "Point",
        "coordinates": [
          -112.02118859355744,
          3.8283791262370443
        ]
      }
    },
    {
      "type": "Feature",
      "properties": {
        "norad_id": 66705,
        "name": "FLOCK 4H-2",
        "group": "last-30-days",
        "lat": 1.4869058120112595,
        "lon": -112.32664074403108,
        "alt_km": 513.6706938304169,
        "timestamp": "2025-12-21T20:41:06.756717+00:00",
        "meta_object_name": "FLOCK 4H-2",
        "meta_object_id": "2025-276AR",
        "meta_epoch": "2025-12-21T10:24:37.666656",
        "meta_mean_motion": 15.18111901,
        "meta_eccentricity": 0.00011239,
        "meta_inclination": 97.4384,
        "meta_ra_of_asc_node": 67.0582,
        "meta_arg_of_pericenter": 163.8014,
        "meta_mean_anomaly": 196.3256,
        "meta_ephemeris_type": 0,
        "meta_classification_type": "U",
        "meta_norad_cat_id": 66705,
        "meta_element_set_no": 999,
        "meta_rev_at_epoch": 344,
        "meta_bstar": 0.00042493283,
        "meta_mean_motion_dot": 8.604e-05,
        "meta_mean_motion_ddot": 0,
        "tle_line1": "1 66705U 25276AR  25355.43376929  .00008604  00000+0  42493-3 0  9991",
        "tle_line2": "2 66705  97.4384  67.0582 0001123 163.8014 196.3256 15.18111901  3440"
      },
      "geometry": {
        "type": "Point",
        "coordinates": [
          -112.32664074403108,
          1.4869058120112595
        ]
      }
    },
    {
      "type": "Feature",
      "properties": {
        "norad_id": 66706,
        "name": "FLOCK 4H-3",
        "group": "last-30-days",
        "lat": 44.9201791133956,
        "lon": -105.02468808943085,
        "alt_km": 504.7144620001236,
        "timestamp": "2025-12-21T20:41:06.756726+00:00",
        "meta_object_name": "FLOCK 4H-3",
        "meta_object_id": "2025-276AS",
        "meta_epoch": "2025-12-21T09:02:08.720448",
        "meta_mean_motion": 15.19631128,
        "meta_eccentricity": 0.001085,
        "meta_inclination": 97.4467,
        "meta_ra_of_asc_node": 67.0015,
        "meta_arg_of_pericenter": 263.3993,
        "meta_mean_anomaly": 96.6007,
        "meta_ephemeris_type": 0,
        "meta_classification_type": "U",
        "meta_norad_cat_id": 66706,
        "meta_element_set_no": 999,
        "meta_rev_at_epoch": 343,
        "meta_bstar": 0.047949064,
        "meta_mean_motion_dot": 0.01105709,
        "meta_mean_motion_ddot": 0,
        "tle_line1": "1 66706U 25276AS  25355.37648982  .01105709  00000+0  47949-1 0  9990",
        "tle_line2": "2 66706  97.4467  67.0015 0010850 263.3993  96.6007 15.19631128  3437"
      },
      "geometry": {
        "type": "Point",
        "coordinates": [
          -105.02468808943085,
          44.9201791133956
        ]
      }
    },
    {
      "type": "Feature",
      "properties": {
        "norad_id": 66707,
        "name": "FLOCK 4H-4",
        "group": "last-30-days",
        "lat": 72.60131774236088,
        "lon": -87.87507576220646,
        "alt_km": 509.49862630372445,
        "timestamp": "2025-12-21T20:41:06.756735+00:00",
        "meta_object_name": "FLOCK 4H-4",
        "meta_object_id": "2025-276AT",
        "meta_epoch": "2025-12-21T12:18:22.238496",
        "meta_mean_motion": 15.17188007,
        "meta_eccentricity": 0.00035127,
        "meta_inclination": 97.4436,
        "meta_ra_of_asc_node": 67.122,
        "meta_arg_of_pericenter": 258.3382,
        "meta_mean_anomaly": 101.7457,
        "meta_ephemeris_type": 0,
        "meta_classification_type": "U",
        "meta_norad_cat_id": 66707,
        "meta_element_set_no": 999,
        "meta_rev_at_epoch": 345,
        "meta_bstar": 0.0003012039,
        "meta_mean_motion_dot": 5.918e-05,
        "meta_mean_motion_ddot": 0,
        "tle_line1": "1 66707U 25276AT  25355.51275739  .00005918  00000+0  30120-3 0  9998",
        "tle_line2": "2 66707  97.4436  67.1220 0003512 258.3382 101.7457 15.17188007  3456"
      },
      "geometry": {
        "type": "Point",
        "coordinates": [
          -87.87507576220646,
          72.60131774236088
        ]
      }
    },
    {
      "type": "Feature",
      "properties": {
        "norad_id": 66708,
        "name": "FLOCK 4H-5",
        "group": "last-30-days",
        "lat": -4.875897574844629,
        "lon": -113.15328995499205,
        "alt_km": 514.7238999588435,
        "timestamp": "2025-12-21T20:41:06.756746+00:00",
        "meta_object_name": "FLOCK 4H-5",
        "meta_object_id": "2025-276AU",
        "meta_epoch": "2025-12-21T07:13:07.585536",
        "meta_mean_motion": 15.18142755,
        "meta_eccentricity": 0.00011198,
        "meta_inclination": 97.439,
        "meta_ra_of_asc_node": 66.9337,
        "meta_arg_of_pericenter": 128.5114,
        "meta_mean_anomaly": 231.622,
        "meta_ephemeris_type": 0,
        "meta_classification_type": "U",
        "meta_norad_cat_id": 66708,
        "meta_element_set_no": 999,
        "meta_rev_at_epoch": 342,
        "meta_bstar": 0.000330697,
        "meta_mean_motion_dot": 6.686e-05,
        "meta_mean_motion_ddot": 0,
        "tle_line1": "1 66708U 25276AU  25355.30078224  .00006686  00000+0  33070-3 0  9996",
        "tle_line2": "2 66708  97.4390  66.9337 0001119 128.5114 231.6220 15.18142755  3423"
      },
      "geometry": {
        "type": "Point",
        "coordinates": [
          -113.15328995499205,
          -4.875897574844629
        ]
      }
    },
    {
      "type": "Feature",
      "properties": {
        "norad_id": 66709,
        "name": "FLOCK 4H-6",
        "group": "last-30-days",
        "lat": 14.04522772635224,
        "lon": -110.63085944827208,
        "alt_km": 512.0212576060912,
        "timestamp": "2025-12-21T20:41:06.756755+00:00",
        "meta_object_name": "FLOCK 4H-6",
        "meta_object_id": "2025-276AV",
        "meta_epoch": "2025-12-21T10:27:51.919776",
        "meta_mean_motion": 15.17892092,
        "meta_eccentricity": 0.00026051,
        "meta_inclination": 97.444,
        "meta_ra_of_asc_node": 67.0759,
        "meta_arg_of_pericenter": 212.9123,
        "meta_mean_anomaly": 147.1949,
        "meta_ephemeris_type": 0,
        "meta_classification_type": "U",
        "meta_norad_cat_id": 66709,
        "meta_element_set_no": 999,
        "meta_rev_at_epoch": 344,
        "meta_bstar": 0.00038596189,
        "meta_mean_motion_dot": 7.759e-05,
        "meta_mean_motion_ddot": 0,
        "tle_line1": "1 66709U 25276AV  25355.43601759  .00007759  00000+0  38596-3 0  9996",
        "tle_line2": "2 66709  97.4440  67.0759 0002605 212.9123 147.1949 15.17892092  3445"
      },
      "geometry": {
        "type": "Point",
        "coordinates": [
          -110.63085944827208,
          14.04522772635224
        ]
      }
    }
  ]
}